GOES 1 (SMS-C)          
1 08366U 75100A   26062.63396098 -.00000005  00000+0  00000+0 0  9990
2 08366   4.8766 278.7592 0005423 359.7442 350.5619  1.00237278184006
GOES 2                  
1 10061U 77048A   26062.96622332 -.00000274  00000+0  00000+0 0  9995
2 10061   6.6702 294.2228 0013890  47.6111 284.7400  0.99397546 45221
GOES 3                  
1 10953U 78062A   26062.90347635 -.00000274  00000+0  00000+0 0  9996
2 10953   7.1399 300.0516 0002825 355.1799 351.7656  0.99365964127486
GOES 4                  
1 11964U 80074A   26062.37060292 -.00000254  00000+0  00000+0 0  9995
2 11964   8.2145 303.7385 0032089 103.0150 199.2874  0.99231464126382
GOES 5                  
1 12472U 81049A   26062.14113352 -.00000207  00000+0  00000+0 0  9992
2 12472   9.5481 316.3502 0004669 336.7595 190.2431  1.00211746121789
GOES 6                  
1 14050U 83041A   26062.32956686 -.00000082  00000+0  00000+0 0  9996
2 14050  10.3592 321.9070 0002360 306.4375 262.1209  1.00217666214955
GOES 7                  
1 17561U 87022A   26062.40572343  .00000068  00000+0  00000+0 0  9995
2 17561  13.0217 338.3812 0003943  14.6167 182.3930  0.99894387125908
GOES 8                  
1 23051U 94022A   26062.62052757 -.00000237  00000+0  00000+0 0  9999
2 23051  14.3398  14.4761 0004983  14.0671 168.0688  0.98908132123088
GOES 9                  
1 23581U 95025A   26062.78528179 -.00000099  00000+0  00000+0 0  9990
2 23581  13.8692  15.3176 0003648 210.9063 141.1665  0.98798832111714
GOES 10                 
1 24786U 97019A   26062.81994863 -.00000105  00000+0  00000+0 0  9992
2 24786  13.0034  21.8516 0031183 239.2095 294.1816  0.99122327105023
GOES 11                 
1 26352U 00022A   26062.92834980 -.00000124  00000+0  00000+0 0  9997
2 26352  11.5793  47.4483 0005945 254.4886 120.1146  0.99041062 51435
GOES 12                 
1 26871U 01031A   26062.86030994 -.00000211  00000+0  00000+0 0  9997
2 26871  11.9937  38.1473 0008759 295.8491  79.8206  0.99137434 89727
EWS-G1 (GOES 13)        
1 29155U 06018A   26062.63647433  .00000026  00000+0  00000+0 0  9995
2 29155   4.2590  77.7119 0062002 272.9811 292.7975  0.98784788 42204
GOES 14                 
1 35491U 09033A   26062.82475610  .00000116  00000+0  00000+0 0  9992
2 35491   1.4174  84.4300 0002213 297.3554 278.8486  1.00124030  5530
EWS-G2 (GOES 15)        
1 36411U 10008A   26062.95564993  .00000008  00000+0  00000+0 0  9996
2 36411   1.0080  85.1578 0001805  21.3342 102.7379  1.00269324 58581
GOES 16                 
1 41866U 16071A   26062.92228311 -.00000104  00000+0  00000+0 0  9998
2 41866   0.1461  90.1616 0002547 217.4792  81.3532  1.00271688 34048
GOES 17                 
1 43226U 18022A   26062.92531646 -.00000195  00000+0  00000+0 0  9996
2 43226   0.6669  87.5647 0002274 220.8746  96.8465  1.00270388 29364
